[{"OBJECT_NAME":"LEMUR-2-LANGER2SPACE","OBJECT_ID":"2025-061H","EPOCH":"2026-04-25T11:24:43.873920","MEAN_MOTION":15.13877399,"ECCENTRICITY":0.0018747,"INCLINATION":97.5587,"RA_OF_ASC_NODE":91.5492,"ARG_OF_PERICENTER":80.9041,"MEAN_ANOMALY":279.4311,"EPHEMERIS_TYPE":0,"CLASSIFICATION_TYPE":"U","NORAD_CAT_ID":63358,"ELEMENT_SET_NO":999,"REV_AT_EPOCH":5964,"BSTAR":0.00023322,"MEAN_MOTION_DOT":4.17e-5,"MEAN_MOTION_DDOT":0},{"OBJECT_NAME":"LEMUR-2-BALTO","OBJECT_ID":"2025-052BH","EPOCH":"2026-04-25T16:19:37.837056","MEAN_MOTION":14.99536517,"ECCENTRICITY":0.0001174,"INCLINATION":97.6942,"RA_OF_ASC_NODE":9.933,"ARG_OF_PERICENTER":177.7708,"MEAN_ANOMALY":182.3521,"EPHEMERIS_TYPE":0,"CLASSIFICATION_TYPE":"U","NORAD_CAT_ID":63395,"ELEMENT_SET_NO":999,"REV_AT_EPOCH":6089,"BSTAR":0.00038441,"MEAN_MOTION_DOT":4.665e-5,"MEAN_MOTION_DDOT":0},{"OBJECT_NAME":"LEMUR-2-KRISH","OBJECT_ID":"2025-135AK","EPOCH":"2026-04-25T20:01:32.935872","MEAN_MOTION":14.95704593,"ECCENTRICITY":0.000109,"INCLINATION":97.7669,"RA_OF_ASC_NODE":231.1144,"ARG_OF_PERICENTER":103.5387,"MEAN_ANOMALY":256.5955,"EPHEMERIS_TYPE":0,"CLASSIFICATION_TYPE":"U","NORAD_CAT_ID":64561,"ELEMENT_SET_NO":999,"REV_AT_EPOCH":4609,"BSTAR":0.00051783,"MEAN_MOTION_DOT":5.709e-5,"MEAN_MOTION_DDOT":0},{"OBJECT_NAME":"LEMUR-2-HUBBLE-4","OBJECT_ID":"2025-135AP","EPOCH":"2026-04-25T06:24:01.310112","MEAN_MOTION":14.93044791,"ECCENTRICITY":0.0003996,"INCLINATION":97.7634,"RA_OF_ASC_NODE":229.8293,"ARG_OF_PERICENTER":103.7056,"MEAN_ANOMALY":256.4609,"EPHEMERIS_TYPE":0,"CLASSIFICATION_TYPE":"U","NORAD_CAT_ID":64565,"ELEMENT_SET_NO":999,"REV_AT_EPOCH":4597,"BSTAR":0.00017641,"MEAN_MOTION_DOT":1.779e-5,"MEAN_MOTION_DDOT":0},{"OBJECT_NAME":"LEMUR-2-SEJONG-2","OBJECT_ID":"2025-135BL","EPOCH":"2026-04-25T19:34:24.065184","MEAN_MOTION":14.96243148,"ECCENTRICITY":0.0005806,"INCLINATION":97.7624,"RA_OF_ASC_NODE":231.2346,"ARG_OF_PERICENTER":130.5679,"MEAN_ANOMALY":229.6048,"EPHEMERIS_TYPE":0,"CLASSIFICATION_TYPE":"U","NORAD_CAT_ID":64586,"ELEMENT_SET_NO":999,"REV_AT_EPOCH":4611,"BSTAR":0.00042593,"MEAN_MOTION_DOT":4.751e-5,"MEAN_MOTION_DDOT":0},{"OBJECT_NAME":"LEMUR-2-HUBBLE-5","OBJECT_ID":"2025-135BT","EPOCH":"2026-04-25T18:49:12.741600","MEAN_MOTION":14.93968245,"ECCENTRICITY":0.0006556,"INCLINATION":97.7651,"RA_OF_ASC_NODE":230.8992,"ARG_OF_PERICENTER":142.9361,"MEAN_ANOMALY":217.2312,"EPHEMERIS_TYPE":0,"CLASSIFICATION_TYPE":"U","NORAD_CAT_ID":64840,"ELEMENT_SET_NO":999,"REV_AT_EPOCH":4608,"BSTAR":0.00015145,"MEAN_MOTION_DOT":1.556e-5,"MEAN_MOTION_DDOT":0},{"OBJECT_NAME":"LEMUR-2-KARENDARRELL","OBJECT_ID":"2025-135BU","EPOCH":"2026-04-25T19:25:52.551264","MEAN_MOTION":14.99369601,"ECCENTRICITY":0.0009342,"INCLINATION":97.7666,"RA_OF_ASC_NODE":232.1362,"ARG_OF_PERICENTER":51.0731,"MEAN_ANOMALY":309.1324,"EPHEMERIS_TYPE":0,"CLASSIFICATION_TYPE":"U","NORAD_CAT_ID":64841,"ELEMENT_SET_NO":999,"REV_AT_EPOCH":4616,"BSTAR":0.0008521,"MEAN_MOTION_DOT":0.00010383,"MEAN_MOTION_DDOT":0},{"OBJECT_NAME":"LEMUR-2-LUCILLE-ROSE","OBJECT_ID":"2025-135BV","EPOCH":"2026-04-25T20:25:54.887808","MEAN_MOTION":14.99365883,"ECCENTRICITY":0.0010918,"INCLINATION":97.7644,"RA_OF_ASC_NODE":232.1668,"ARG_OF_PERICENTER":99.2233,"MEAN_ANOMALY":261.0225,"EPHEMERIS_TYPE":0,"CLASSIFICATION_TYPE":"U","NORAD_CAT_ID":65403,"ELEMENT_SET_NO":999,"REV_AT_EPOCH":4079,"BSTAR":0.00080877,"MEAN_MOTION_DOT":9.853e-5,"MEAN_MOTION_DDOT":0},{"OBJECT_NAME":"LEMUR-2-AFFIE-WAUWIE","OBJECT_ID":"2025-248C","EPOCH":"2026-04-25T19:50:01.680576","MEAN_MOTION":15.25353439,"ECCENTRICITY":0.0008765,"INCLINATION":45.3993,"RA_OF_ASC_NODE":38.2974,"ARG_OF_PERICENTER":148.5563,"MEAN_ANOMALY":211.5851,"EPHEMERIS_TYPE":0,"CLASSIFICATION_TYPE":"U","NORAD_CAT_ID":66295,"ELEMENT_SET_NO":999,"REV_AT_EPOCH":2659,"BSTAR":0.00081812,"MEAN_MOTION_DOT":0.00020793,"MEAN_MOTION_DDOT":0},{"OBJECT_NAME":"LEMUR-2-DEANANDMAEVE","OBJECT_ID":"2025-276N","EPOCH":"2026-04-25T18:14:21.077088","MEAN_MOTION":15.19047941,"ECCENTRICITY":0.00063,"INCLINATION":97.4227,"RA_OF_ASC_NODE":190.1285,"ARG_OF_PERICENTER":168.414,"MEAN_ANOMALY":191.7241,"EPHEMERIS_TYPE":0,"CLASSIFICATION_TYPE":"U","NORAD_CAT_ID":66678,"ELEMENT_SET_NO":999,"REV_AT_EPOCH":2245,"BSTAR":0.00034934,"MEAN_MOTION_DOT":7.258e-5,"MEAN_MOTION_DDOT":0},{"OBJECT_NAME":"LEMUR-2-STAS-GORBUK","OBJECT_ID":"2025-276W","EPOCH":"2026-04-25T18:20:10.699872","MEAN_MOTION":15.18793512,"ECCENTRICITY":0.0005884,"INCLINATION":97.4264,"RA_OF_ASC_NODE":190.1877,"ARG_OF_PERICENTER":162.7087,"MEAN_ANOMALY":197.4348,"EPHEMERIS_TYPE":0,"CLASSIFICATION_TYPE":"U","NORAD_CAT_ID":66686,"ELEMENT_SET_NO":999,"REV_AT_EPOCH":2245,"BSTAR":0.00028317,"MEAN_MOTION_DOT":5.826e-5,"MEAN_MOTION_DDOT":0},{"OBJECT_NAME":"LEMUR-2-TEODOR","OBJECT_ID":"2025-276DG","EPOCH":"2026-04-25T17:44:44.928960","MEAN_MOTION":15.20461302,"ECCENTRICITY":0.0001341,"INCLINATION":97.4167,"RA_OF_ASC_NODE":190.3346,"ARG_OF_PERICENTER":73.3468,"MEAN_ANOMALY":286.7914,"EPHEMERIS_TYPE":0,"CLASSIFICATION_TYPE":"U","NORAD_CAT_ID":66768,"ELEMENT_SET_NO":999,"REV_AT_EPOCH":2247,"BSTAR":0.00027453,"MEAN_MOTION_DOT":5.925e-5,"MEAN_MOTION_DDOT":0},{"OBJECT_NAME":"LEMUR-2-LAILA","OBJECT_ID":"2025-276DQ","EPOCH":"2026-04-25T17:17:57.312672","MEAN_MOTION":15.20674378,"ECCENTRICITY":0.0001916,"INCLINATION":97.4189,"RA_OF_ASC_NODE":190.4033,"ARG_OF_PERICENTER":60.2029,"MEAN_ANOMALY":299.9397,"EPHEMERIS_TYPE":0,"CLASSIFICATION_TYPE":"U","NORAD_CAT_ID":66776,"ELEMENT_SET_NO":999,"REV_AT_EPOCH":2247,"BSTAR":0.00025958,"MEAN_MOTION_DOT":5.634e-5,"MEAN_MOTION_DDOT":0},{"OBJECT_NAME":"LEMUR-2-CELIJO-SB-PK","OBJECT_ID":"2025-276DW","EPOCH":"2026-04-25T17:22:20.659008","MEAN_MOTION":14.99292759,"ECCENTRICITY":0.000875,"INCLINATION":97.5247,"RA_OF_ASC_NODE":188.2433,"ARG_OF_PERICENTER":310.1692,"MEAN_ANOMALY":49.8765,"EPHEMERIS_TYPE":0,"CLASSIFICATION_TYPE":"U","NORAD_CAT_ID":66781,"ELEMENT_SET_NO":999,"REV_AT_EPOCH":1476,"BSTAR":0.00046794,"MEAN_MOTION_DOT":5.662e-5,"MEAN_MOTION_DDOT":0},{"OBJECT_NAME":"LEMUR-2-FINNIAN","OBJECT_ID":"2025-276DX","EPOCH":"2026-04-25T17:10:32.274048","MEAN_MOTION":14.99748444,"ECCENTRICITY":0.000521,"INCLINATION":97.5269,"RA_OF_ASC_NODE":188.421,"ARG_OF_PERICENTER":290.3769,"MEAN_ANOMALY":69.6895,"EPHEMERIS_TYPE":0,"CLASSIFICATION_TYPE":"U","NORAD_CAT_ID":66782,"ELEMENT_SET_NO":999,"REV_AT_EPOCH":1213,"BSTAR":0.0004345,"MEAN_MOTION_DOT":5.313e-5,"MEAN_MOTION_DDOT":0},{"OBJECT_NAME":"LEMUR-2-STARLIGHT","OBJECT_ID":"2025-276DY","EPOCH":"2026-04-25T18:15:29.562048","MEAN_MOTION":14.98533048,"ECCENTRICITY":0.0012831,"INCLINATION":97.5289,"RA_OF_ASC_NODE":188.2048,"ARG_OF_PERICENTER":313.9946,"MEAN_ANOMALY":46.0218,"EPHEMERIS_TYPE":0,"CLASSIFICATION_TYPE":"U","NORAD_CAT_ID":66783,"ELEMENT_SET_NO":999,"REV_AT_EPOCH":2234,"BSTAR":0.00049005,"MEAN_MOTION_DOT":5.821e-5,"MEAN_MOTION_DDOT":0}]
